{
  "norad_id": 65093,
  "name": "STARLINK-34266",
  "history": [
    {
      "epoch": "2026-03-28T20:45:58.896864",
      "apogee_km": 475.9565862014251,
      "perigee_km": 474.5086062731325,
      "latitude_deg": 44.477380356558655,
      "longitude_deg": 52.36544096004218,
      "semi_major_axis_km": 6853.3695962372785,
      "eccentricity": 0.00010564,
      "inclination_deg": 53.1586,
      "raan_deg": 297.7363,
      "arg_perigee_deg": 83.4647,
      "mean_anomaly_deg": 276.6474,
      "mean_motion_rev_day": 15.3019413
    }
  ]
}